GLOBALSTAR M004         
1 25163U 98008B   25358.80447554 -.00000096  00000+0  44313-4 0  9996
2 25163  51.9973 192.6183 0003323  14.2566 358.8211 12.63411370285784
GLOBALSTAR M014         
1 25306U 98023A   25359.11103516 -.00000077  00000+0  84958-5 0  9993
2 25306  51.9861  40.7011 0000608   2.7493  21.9526 11.65483599213439
GLOBALSTAR M006         
1 25307U 98023B   25358.71673005 -.00000111  00000+0 -71380-3 0  9997
2 25307  51.9937 101.2918 0003947 101.1664  68.0660 11.58178187238902
GLOBALSTAR M015         
1 25308U 98023C   25359.05024132 -.00000064  00000+0  21207-3 0  9996
2 25308  51.9785 207.6836 0013719  57.9935 101.2185 11.48863056216016
GLOBALSTAR M008         
1 25309U 98023D   25358.77206737 -.00000072  00000+0  19237-3 0  9997
2 25309  51.9992   5.4954 0002582 212.9807 318.0765 12.36077453261411
